STARLINK-5539           
1 55747U 23028G   26068.85733490  .00000320  00000+0  34605-4 0  9990
2 55747  69.9992 244.0974 0002582 271.1358  88.9505 14.98332394166068
HAWK-9A                 
1 59446U 24066E   26068.43100697  .00002638  00000+0  23459-3 0  9992
2 59446  45.6088  72.7153 0003627 244.6286 115.4219 14.98777479104861
